COSMOS 2251 DEB         
1 33900U 93036DD  25325.68049273  .00002349  00000+0  50703-3 0  9997
2 33900  74.0205  39.9830 0048136 197.2890 284.3056 14.58230596887290
COSMOS 2251 DEB         
1 33901U 93036DE  25325.77657299  .00058184  00000+0  32657-2 0  9996
2 33901  73.7679  93.5432 0038157 224.3963 135.4168 15.12426184891961
COSMOS 2251 DEB         
1 33905U 93036DJ  25326.08220124  .00002075  00000+0  71955-3 0  9991
2 33905  73.8875 354.8772 0059830 247.7942 144.9325 14.35267146873911
COSMOS 2251 DEB         
1 33906U 93036DK  25325.53141846  .00007525  00000+0  16788-2 0  9991
2 33906  74.0311   1.7557 0035604  36.6257  77.6514 14.56589173876999
COSMOS 2251 DEB         
1 33907U 93036DL  25325.41545829  .00006531  00000+0  23534-2 0  9991
2 33907  74.0701  72.3717 0114814 133.7841 294.1379 14.30216351862755
COSMOS 2251 DEB         
1 33908U 93036DM  25325.82754137  .00003229  00000+0  15433-2 0  9991
2 33908  73.8374 242.8648 0225371 270.0174  87.5139 14.07144608851790
COSMOS 2251 DEB         
1 33911U 93036DQ  25325.82908660  .00012213  00000+0  18499-2 0  9995
2 33911  74.0912 202.5435 0014846 154.8982 324.3686 14.74146677883360
COSMOS 2251 DEB         
1 33912U 93036DR  25325.86053942  .00003131  00000+0  78546-3 0  9993
2 33912  74.0351 229.0482 0011623 307.8592 125.6438 14.51729088881308
